ONEWEB-0324             
1 49193U 21083H   22013.58334491  .00023690  00000+0  59914-1 0  9993
2 49193  87.9092 296.6088 0002222  90.8560 305.0050 13.18672226  3282
ONEWEB-0325             
1 49194U 21083J   22013.58334491  .00023406  00000+0  59196-1 0  9991
2 49194  87.9092 296.4980 0000713 110.3161 270.9326 13.18673392  3292
ONEWEB-0326             
1 49195U 21083K   22013.58334491  .00022631  00000+0  57239-1 0  9997
2 49195  87.9096 296.5914 0001850  90.9985 238.8102 13.18673233  3283
ONEWEB-0327             
1 49196U 21083L   22013.58334491  .00024031  00000+0  60784-1 0  9993
2 49196  87.9099 296.5442 0002923  92.0844 311.2214 13.18659163  3288
ONEWEB-0328             
1 49197U 21083M   22013.58334491  .00055773  00000+0  61549-2 0  9992
2 49197  87.4553 285.7661 0016611 228.0852 317.3721 14.87101349  3567
ONEWEB-0331             
1 49198U 21083N   22013.58334491  .00022701  00000+0  57417-1 0  9996
2 49198  87.9112 296.5891 0002108  87.6261 264.2065 13.18672715  3281
ONEWEB-0333             
1 49199U 21083P   22013.58334491 -.00016333  00000+0 -18221-2 0  9994
2 49199  87.4491 285.8093 0016238 228.3978 286.9205 14.87170009  3564
ONEWEB-0334             
1 49200U 21083Q   22013.58334491  .00057637  00000+0  59702-2 0  9996
2 49200  87.2028 285.3474 0019786 220.7492 232.6433 14.89617769  3569
ONEWEB-0335             
1 49201U 21083R   22013.58334491  .00051811  00000+0  57085-2 0  9997
2 49201  87.4516 285.8284 0019357 218.3509  86.4474 14.87152975  3554
ONEWEB-0336             
1 49202U 21083S   22013.58334491  .00053634  00000+0  59125-2 0  9990
2 49202  87.4515 285.7922 0017447 213.0494 165.2525 14.87146637  3578
ONEWEB-0337             
1 49203U 21083T   22013.58334491  .00053255  00000+0  58644-2 0  9995
2 49203  87.4490 285.8058 0019076 219.9442 146.1044 14.87171018  3553
ONEWEB-0338             
1 49204U 21083U   22013.58334491  .00053805  00000+0  55757-2 0  9999
2 49204  87.2087 285.4353 0018863 227.8834 119.3612 14.89634303  3561
ONEWEB-0339             
1 49205U 21083V   22013.58334491  .00055105  00000+0  60763-2 0  9998
2 49205  87.4542 285.7781 0017145 219.6079 204.7814 14.87131463  3537
ONEWEB-0340             
1 49206U 21083W   22013.58334491  .00024234  00000+0  61288-1 0  9990
2 49206  87.9096 296.5996 0001722  88.1166 322.5143 13.18670022  3317
ONEWEB-0341             
1 49207U 21083X   22013.58334491  .00023225  00000+0  58743-1 0  9992
2 49207  87.9094 296.4900 0001191 123.7535 250.2188 13.18668310  3319
ONEWEB-0342             
1 49208U 21083Y   22013.58334491  .00058589  00000+0  60646-2 0  9990
2 49208  87.2048 285.3797 0020044 215.2657 295.4238 14.89636750  3569
ONEWEB-0343             
1 49209U 21083Z   22013.58334491  .00023560  00000+0  59581-1 0  9997
2 49209  87.9111 296.5432 0000709 139.5347 249.0502 13.18677246  3293
ONEWEB-0344             
1 49210U 21083AA  22013.58334491  .00051993  00000+0  57332-2 0  9993
2 49210  87.4533 285.7719 0018410 214.2154  96.2799 14.87131335  3528
ONEWEB-0345             
1 49211U 21083AB  22013.58334491  .00052891  00000+0  58282-2 0  9997
2 49211  87.4561 285.7983 0018078 217.2170 134.5730 14.87159633  3537
ONEWEB-0346             
1 49212U 21083AC  22013.58334491  .00022861  00000+0  57820-1 0  9998
2 49212  87.9077 296.5425 0002340  90.2234 268.9563 13.18673798  3308
ONEWEB-0348             
1 49213U 21083AD  22013.58334491  .00058169  00000+0  60251-2 0  9992
2 49213  87.2074 285.4184 0019245 219.8973 253.7057 14.89624491  3562
ONEWEB-0350             
1 49214U 21083AE  22013.58334491  .00056230  00000+0  61969-2 0  9997
2 49214  87.4349 285.8227 0015696 222.7261 235.5041 14.87164971  3539
ONEWEB-0351             
1 49215U 21083AF  22013.58334491  .00054122  00000+0  56124-2 0  9993
2 49215  87.2001 285.3159 0017284 212.8668  28.6019 14.89625871  3548
ONEWEB-0352             
1 49216U 21083AG  22013.58334491  .00054777  00000+0  60409-2 0  9991
2 49216  87.4472 285.7972 0016205 221.2507 194.5700 14.87139489  3530
ONEWEB-0354             
1 49217U 21083AH  22013.58334491  .00058563  00000+0  60678-2 0  9997
2 49217  87.2057 285.3843 0017510 209.2545 280.4639 14.89632927  3565
ONEWEB-0355             
1 49218U 21083AJ  22013.58334491  .00056938  00000+0  62687-2 0  9994
2 49218  87.4582 285.7588 0015943 226.9996 287.1225 14.87199361  3546
ONEWEB-0357             
1 49219U 21083AK  22013.58334491  .00056572  00000+0  58606-2 0  9995
2 49219  87.2052 285.3851 0018666 220.8332 206.0894 14.89634873  3577
ONEWEB-0332             
1 49279U 21090A   22013.58334491  .00061527  00000+0  65802-2 0  9991
2 49279  87.1988 261.3341 0005775 303.9553  49.8082 14.88432674  3568
ONEWEB-0347             
1 49280U 21090B   22013.58334491  .00062591  00000+0  66925-2 0  9992
2 49280  87.2025 261.3778 0008265 332.8496  64.9298 14.88423515  3540
ONEWEB-0349             
1 49281U 21090C   22013.58334491  .00183733  00000+0  18121-1 0  9999
2 49281  87.2047 261.2661 0009912 307.7072 214.3201 14.90981729  3562
ONEWEB-0353             
1 49282U 21090D   22013.58334491  .00061526  00000+0  65785-2 0  9994
2 49282  87.2000 261.3372 0007619 312.5838  52.3489 14.88434142  3576
ONEWEB-0356             
1 49283U 21090E   22013.58334491  .00063632  00000+0  63890-2 0  9990
2 49283  87.2042 261.2735 0006122 327.2059 326.8720 14.90967579  3565
ONEWEB-0358             
1 49284U 21090F   22013.58334491  .00061518  00000+0  65761-2 0  9991
2 49284  87.1989 261.3291 0005548 304.6724  57.1496 14.88453187  3568
ONEWEB-0359             
1 49285U 21090G   22013.58334491  .00066844  00000+0  71410-2 0  9997
2 49285  87.2030 261.3743 0007553 334.0328 128.8019 14.88439431  3578
ONEWEB-0360             
1 49286U 21090H   22013.58334491  .00065162  00000+0  65421-2 0  9995
2 49286  87.2050 261.2827 0004736 320.7643 312.4937 14.90967366  3537
ONEWEB-0361             
1 49287U 21090J   22013.58334491  .00061854  00000+0  62068-2 0  9994
2 49287  87.2047 261.2758 0006915 326.2404  36.1633 14.90997927  3577
ONEWEB-0362             
1 49288U 21090K   22013.58334491  .00000015  00000+0  00000+0 0  9992
2 49288  87.8260 266.2368 0006482 342.6174  84.0981 13.65692924  3419
ONEWEB-0363             
1 49289U 21090L   22013.58334491  .00066405  00000+0  66665-2 0  9990
2 49289  87.2064 261.3019 0004518 326.3472 286.4307 14.90963849  3565
ONEWEB-0364             
1 49290U 21090M   22013.58334491  .00066404  00000+0  70922-2 0  9992
2 49290  87.2037 261.3857 0008991 327.3913 132.3013 14.88443946  3579
ONEWEB-0365             
1 49291U 21090N   22013.58334491  .00000015  00000+0  00000+0 0  9996
2 49291  87.8173 266.2187 0007582 331.2316 304.7559 13.64312809  3434
ONEWEB-0366             
1 49292U 21090P   22013.58334491  .00062409  00000+0  66763-2 0  9993
2 49292  87.2011 261.3520 0006179 305.6153  10.0187 14.88415265  3567
ONEWEB-0367             
1 49293U 21090Q   22013.58334491  .00068408  00000+0  68588-2 0  9996
2 49293  87.2084 261.3252 0004837 323.9443 262.8854 14.91002682  3561
ONEWEB-0368             
1 49294U 21090R   22013.58334491  .00069820  00000+0  74556-2 0  9998
2 49294  87.2056 261.4041 0008828 315.3184 212.9625 14.88433304  3544
ONEWEB-0369             
1 49295U 21090S   22013.58334491  .00000015  00000+0  00000+0 0  9990
2 49295  87.7641 266.2069 0006513 327.1484 131.8231 13.60760421  3416
ONEWEB-0370             
1 49296U 21090T   22013.58334491  .00062030  00000+0  62274-2 0  9990
2 49296  87.2029 261.2535 0008378 318.2709  59.3105 14.90969977  3579
ONEWEB-0371             
1 49297U 21090U   22013.58334491  .00000015  00000+0  00000+0 0  9992
2 49297  87.8109 266.1797 0007136  12.7443 249.2391 13.70056762  3394
ONEWEB-0372             
1 49298U 21090V   22013.58334491  .00069024  00000+0  69174-2 0  9998
2 49298  87.2039 261.2519 0009428 311.8453 180.9875 14.90995100  3545
ONEWEB-0373             
1 49299U 21090W   22013.58334491  .00065603  00000+0  70164-2 0  9999
2 49299  87.2009 261.3565 0006046 308.5348 313.6280 14.88407423  3564
ONEWEB-0374             
1 49300U 21090X   22013.58334491  .00061742  00000+0  66042-2 0  9992
2 49300  87.2038 261.3929 0007200 338.5670   3.9562 14.88419016  3560
ONEWEB-0375             
1 49301U 21090Y   22013.58334491  .00063077  00000+0  67432-2 0  9990
2 49301  87.1989 261.3315 0003919 318.2627  90.3518 14.88446659  3535
ONEWEB-0376             
1 49302U 21090Z   22013.58334491  .00000015  00000+0  00000+0 0  9999
2 49302  87.8251 266.1932 0007096 357.0448 122.9762 13.66580322  3393
ONEWEB-0377             
1 49303U 21090AA  22013.58334491  .00067536  00000+0  72142-2 0  9990
2 49303  87.2035 261.3909 0007906 340.5325 134.3389 14.88437591  3576
ONEWEB-0378             
1 49304U 21090AB  22013.58334491  .00069698  00000+0  69870-2 0  9996
2 49304  87.1990 261.2028 0008408 281.8656 271.8684 14.90986314  3546
ONEWEB-0379             
1 49305U 21090AC  22013.58334491  .00068949  00000+0  73601-2 0  9992
2 49305  87.2027 261.3692 0009113 317.7697 181.5461 14.88450282  3575
ONEWEB-0380             
1 49306U 21090AD  22013.58334491  .00000015  00000+0  00000+0 0  9993
2 49306  87.7772 266.2189 0007052 348.3457 100.5658 13.61144480  3408
ONEWEB-0381             
1 49307U 21090AE  22013.58334491  .00062044  00000+0  62249-2 0  9990
2 49307  87.2076 261.3045 0005781 328.4043   8.4604 14.91007810  3568
ONEWEB-0382             
1 49308U 21090AF  22013.58334491  .00063792  00000+0  63955-2 0  9997
2 49308  87.2026 261.2291 0009070 291.5281 357.7351 14.91011112  3564
ONEWEB-0383             
1 49309U 21090AG  22013.58334491  .00065414  00000+0  69888-2 0  9992
2 49309  87.2018 261.3545 0008646 310.5834 136.7161 14.88437920  3573
ONEWEB-0384             
1 49310U 21090AH  22013.58334491  .00064649  00000+0  64875-2 0  9994
2 49310  87.2018 261.2397 0008462 289.1083 346.9176 14.90972388  3567
